FLOCK 4G-24             
1 62637U 25009AE  26068.72509072  .00010513  00000+0  38996-3 0  9991
2 62637  97.4061 151.5140 0001802 280.2808  79.8228 15.27784978 63732
STARLINK-33646          
1 63280U 25053R   26068.47817681  .00031363  00000+0  11436-2 0  9990
2 63280  42.9971 242.7529 0001018 236.3749 123.7006 15.27602226 56168
